ONEWEB-0683             
1 56719U 23068K   24302.15750613  .00000018  00000+0  13405-4 0  9991
2 56719  87.9123  18.0145 0001453  99.0111 261.1184 13.15547390 71620
ONEWEB-0684             
1 56720U 23068L   24302.46964120 -.00000332  00000+0 -91498-3 0  9995
2 56720  87.9099  18.0291 0002958  76.3033 283.8427 13.15547520 71499
ONEWEB-0686             
1 56721U 23068M   24302.36355189  .00000174  00000+0  42203-3 0  9996
2 56721  87.9121 347.7119 0001697  86.4991 273.6334 13.16595820 73887
ONEWEB-0694             
1 56722U 23068N   24301.86882920  .00000038  00000+0  66403-4 0  9997
2 56722  87.9117 347.7287 0001438  98.8406 261.2887 13.16073042 73175
ONEWEB-0696             
1 56723U 23068P   24302.50293166  .00000181  00000+0  44614-3 0  9996
2 56723  87.9123  17.9976 0002054 100.1543 259.9819 13.15549226 71615
ONEWEB-0703             
1 56724U 23068Q   24302.51242179 -.00000172  00000+0 -49141-3 0  9998
2 56724  87.9122  18.0159 0002973 103.7242 256.4220 13.15548172 71500
ONEWEB-0721             
1 56725U 23068R   24302.25001157 -.00115209  00000+0 -26345-1 0  9996
2 56725  86.6704 280.5010 0009718 142.0535  35.1012 14.56577140 78949
ONEWEB-0015             
1 61594U 24188A   24302.25001157 -.00005050  00000+0 -50809-3 0  9996
2 61594  86.5107 167.1270 0004161 166.9569 225.4078 14.91541062  2229
